     3.00           N                   E                   RINEX VERSION / TYPE
BRD_USR             ESA                 20190115 101740  UTCPGM / RUN BY / DATE
 GAL   3.5750E+01  1.3672E-01 -6.1035E-05  0.0000E+00       IONOSPHERIC CORR
GAUT  2.7939677238E-09-1.776356839E-15 172800 2036 GSTB   0 TIME SYSTEM CORR
GPGA -1.4551915228E-09-1.110223025E-14 172800 2036 GSTB   0 TIME SYSTEM CORR
                                                            END OF HEADER
E08 2019 01 15 08 20 00 6.423079350498E-03-7.460698725481E-12 0.000000000000E+00
     8.200000000000E+01-5.518750000000E+01 3.380497954166E-09 6.735428384828E-01
    -2.522021532059E-06 2.099324483424E-04 8.132308721542E-06 5.440614120483E+03
     2.028000000000E+05-4.284083843231E-08 1.111065082058E+00-3.725290298462E-09
     9.584098862359E-01 1.637500000000E+02 4.553947620255E-01-5.651663985919E-09
    -2.917978688382E-10 5.210000000000E+02 2.036000000000E+03 0.000000000000E+00
     3.120000000000E+00 0.000000000000E+00-8.847564458847E-09-1.001171767712E-08
     2.034850000000E+05 0.000000000000E+00 0.000000000000E+00 0.000000000000E+00
E09 2019 01 15 08 20 00 6.557725544553E-03-1.131184035330E-11 0.000000000000E+00
     8.200000000000E+01-4.759375000000E+01 3.410856361573E-09-2.874214672978E+00
    -2.246350049973E-06 2.378667704761E-04 8.698552846909E-06 5.440614625931E+03
     2.028000000000E+05 4.470348358154E-08 1.111063478699E+00-4.097819328308E-08
     9.584393845160E-01 1.492187500000E+02 7.488960576125E-02-5.694880071757E-09
    -4.168030758068E-10 5.210000000000E+02 2.036000000000E+03 0.000000000000E+00
     3.120000000000E+00 0.000000000000E+00-3.259629011154E-09-3.958120942116E-09
     2.034850000000E+05 0.000000000000E+00 0.000000000000E+00 0.000000000000E+00
E12 2019 01 15 08 20 00 5.946538061835E-03 8.436984444415E-11 0.000000000000E+00
     8.200000000000E+01-3.393750000000E+01 2.777615698843E-09 9.403043790631E-01
    -1.573935151100E-06 4.069996066391E-04 1.026503741741E-05 5.440610044479E+03
     2.028000000000E+05 5.587935447693E-09-9.856699748708E-01 4.284083843231E-08
     9.820059648787E-01 1.328437500000E+02-8.400447192344E-01-5.445941131022E-09
     2.964409193827E-10 5.210000000000E+02 2.036000000000E+03 0.000000000000E+00
     3.120000000000E+00 0.000000000000E+00-1.559965312481E-08-1.606531441212E-08
     2.034850000000E+05 0.000000000000E+00 0.000000000000E+00 0.000000000000E+00
E14 2019 01 15 08 20 00 6.459659547545E-03-5.627498467220E-12 0.000000000000E+00
     8.200000000000E+01-1.904687500000E+02 5.051281834735E-09 2.159650436829E+00
    -8.242204785347E-06 1.662752592238E-01 2.251937985420E-06 5.289375202179E+03
     2.028000000000E+05 2.756714820862E-06-1.588096578026E+00-1.043081283569E-06
     8.826469959160E-01 2.765312500000E+02 1.458364863779E+00-5.825956960207E-09
    -1.642925577302E-11 5.210000000000E+02 2.036000000000E+03 0.000000000000E+00
     3.120000000000E+00 4.550000000000E+02 3.306195139885E-08 3.725290298462E-08
     2.034850000000E+05 0.000000000000E+00 0.000000000000E+00 0.000000000000E+00
E15 2019 01 15 08 20 00 9.229153511114E-04-1.065814103640E-12 0.000000000000E+00
     8.200000000000E+01-4.565625000000E+01 2.740828452221E-09-1.483140083652E+00
    -2.063810825348E-06 3.916033310816E-04 9.160488843918E-06 5.440600677490E+03
     2.028000000000E+05 5.587935447693E-09-9.909470334472E-01-2.048909664154E-08
     9.851914806996E-01 1.585625000000E+02-1.572937496120E+00-5.383081369803E-09
     2.250093725435E-10 5.210000000000E+02 2.036000000000E+03 0.000000000000E+00
     3.120000000000E+00 4.550000000000E+02 1.396983861923E-09 1.396983861923E-09
     2.034850000000E+05 0.000000000000E+00 0.000000000000E+00 0.000000000000E+00
E18 2019 01 15 08 20 00 5.604969512206E-03-2.847855284926E-11 0.000000000000E+00
     8.200000000000E+01 2.900000000000E+01 5.467370595074E-09-1.012520383538E+00
     2.536922693253E-06 1.663117915159E-01 9.734183549881E-06 5.289358871460E+03
     2.028000000000E+05-1.695007085800E-06-1.570893710326E+00 4.321336746216E-06
     8.818394168599E-01 1.799375000000E+02 1.442994331695E+00-9.120737058165E-09
    -6.707422248202E-10 5.210000000000E+02 2.036000000000E+03 0.000000000000E+00
     3.120000000000E+00 4.550000000000E+02 1.420266926289E-08 1.583248376846E-08
     2.034850000000E+05 0.000000000000E+00 0.000000000000E+00 0.000000000000E+00
E21 2019 01 15 08 20 00-5.145244067535E-04-1.946887095983E-12 0.000000000000E+00
     8.200000000000E+01 7.681250000000E+01 2.791902008211E-09-3.133486700584E+00
     3.617256879807E-06 4.390079993755E-05 4.302710294724E-06 5.440626617432E+03
     2.028000000000E+05 1.676380634308E-08-3.073567084326E+00 3.166496753693E-08
     9.896635217895E-01 2.624375000000E+02 6.167170979311E-01-5.621662736246E-09
     6.107397254753E-11 5.210000000000E+02 2.036000000000E+03 0.000000000000E+00
     3.120000000000E+00 0.000000000000E+00-2.328306436539E-09-2.793967723846E-09
     2.034850000000E+05 0.000000000000E+00 0.000000000000E+00 0.000000000000E+00
E27 2019 01 15 08 20 00 5.493612261489E-04-7.688072400924E-12 0.000000000000E+00
     8.200000000000E+01 7.809375000000E+01 2.794044954616E-09-9.080776499019E-01
     3.611668944359E-06 1.717900158837E-04 4.541128873825E-06 5.440628782272E+03
     2.028000000000E+05 1.117587089539E-08-3.073550765475E+00 1.117587089539E-08
     9.896357175685E-01 2.560625000000E+02-8.218099383797E-01-5.638449149754E-09
     6.250260348431E-11 5.210000000000E+02 2.036000000000E+03 0.000000000000E+00
     3.120000000000E+00 0.000000000000E+00-2.561137080193E-09-3.026798367500E-09
     2.034850000000E+05 0.000000000000E+00 0.000000000000E+00 0.000000000000E+00
E30 2019 01 15 08 20 00 5.187085072976E-03-3.051070507354E-11 0.000000000000E+00
     8.200000000000E+01 8.940625000000E+01 2.887977438710E-09-1.594125864690E+00
     4.176050424576E-06 3.121868940070E-04 4.163011908531E-06 5.440614110947E+03
     2.028000000000E+05-7.450580596924E-09-3.067557580703E+00 6.891787052155E-08
     9.876511565493E-01 2.604375000000E+02 6.302061476671E-01-5.680236604655E-09
     1.021471119801E-10 5.210000000000E+02 2.036000000000E+03 0.000000000000E+00
     3.120000000000E+00 0.000000000000E+00-3.026798367500E-09-3.725290298462E-09
     2.034850000000E+05 0.000000000000E+00 0.000000000000E+00 0.000000000000E+00
E36 2019 01 15 08 20 00 7.594504277222E-04-4.490630090004E-12 0.000000000000E+00
     8.200000000000E+01-5.937500000000E+01 2.691183527167E-09 2.196749094274E-02
    -2.723187208176E-06 3.389017656446E-04 1.037120819092E-05 5.440603948593E+03
     2.028000000000E+05 3.539025783539E-08-9.909448449218E-01 3.539025783539E-08
     9.852375977292E-01 1.294375000000E+02-1.505215960732E+00-5.414511250413E-09
     2.828689254833E-10 5.210000000000E+02 2.036000000000E+03 0.000000000000E+00
     3.120000000000E+00 4.550000000000E+02 9.313225746155E-10 1.164153218269E-09
     2.034850000000E+05 0.000000000000E+00 0.000000000000E+00 0.000000000000E+00
E02 2019 01 15 08 20 00 4.340714076534E-05 1.563194018672E-12 0.000000000000E+00
     8.200000000000E+01 9.253125000000E+01 2.849761561151E-09-6.119166741571E-02
     4.393979907036E-06 2.513456856832E-04 4.593282938004E-06 5.440614412308E+03
     2.028000000000E+05-5.960464477539E-08-3.070990666151E+00-3.725290298462E-09
     9.901076944397E-01 2.537500000000E+02-1.169613376463E-01-5.679165131452E-09
     1.407201472733E-10 2.580000000000E+02 2.036000000000E+03 0.000000000000E+00
    -1.000000000000E+00 0.000000000000E+00-6.053596735001E-09 0.000000000000E+00
     2.035000000000E+05 0.000000000000E+00 0.000000000000E+00 0.000000000000E+00
E03 2019 01 15 08 20 00-1.223775907420E-04-4.277467269276E-12 0.000000000000E+00
     8.200000000000E+01-5.815625000000E+01 3.403713206889E-09 1.292307492149E+00
    -2.725049853325E-06 2.558833220974E-04 8.428469300270E-06 5.440615217209E+03
     2.028000000000E+05 3.725290298462E-09 1.119664739193E+00-7.636845111847E-08
     9.524241052926E-01 1.561250000000E+02 6.204444903120E-01-5.680236604655E-09
    -3.743013054375E-10 2.580000000000E+02 2.036000000000E+03 0.000000000000E+00
     3.120000000000E+00 0.000000000000E+00-1.862645149231E-09 0.000000000000E+00
     2.035000000000E+05 0.000000000000E+00 0.000000000000E+00 0.000000000000E+00
E04 2019 01 15 08 20 00-2.004143316299E-04-7.858602657507E-12 0.000000000000E+00
     8.200000000000E+01-3.631250000000E+01 3.449072239132E-09 2.107822109286E+00
    -1.650303602219E-06 7.112778257579E-05 9.093433618546E-06 5.440616592407E+03
     2.028000000000E+05 8.195638656616E-08 1.119715040169E+00 1.862645149231E-08
     9.524661480953E-01 1.407500000000E+02 2.165672910684E+00-5.730238687442E-09
    -3.646580466142E-10 2.580000000000E+02 2.036000000000E+03 0.000000000000E+00
     3.120000000000E+00 0.000000000000E+00-7.916241884232E-09 0.000000000000E+00
     2.035000000000E+05 0.000000000000E+00 0.000000000000E+00 0.000000000000E+00
E07 2019 01 15 08 20 00-1.129115698859E-04-7.077005648171E-12 0.000000000000E+00
     8.200000000000E+01-4.359375000000E+01 3.443714873119E-09 3.688001599956E-01
    -2.045184373856E-06 1.336301211268E-04 8.236616849899E-06 5.440618278503E+03
     2.028000000000E+05-3.166496753693E-08 1.119665957804E+00-7.450580596924E-09
     9.524669234419E-01 1.560625000000E+02-2.645333027596E-02-5.724524163695E-09
    -3.017982853957E-10 2.580000000000E+02 2.036000000000E+03 0.000000000000E+00
     3.120000000000E+00 0.000000000000E+00 2.328306436539E-10 0.000000000000E+00
     2.035000000000E+05 0.000000000000E+00 0.000000000000E+00 0.000000000000E+00
